[{"OBJECT_NAME":"GAOFEN-9 03","OBJECT_ID":"2020-039A","EPOCH":"2026-03-09T21:55:15.121344","MEAN_MOTION":15.30529116,"ECCENTRICITY":0.0013094,"INCLINATION":97.5219,"RA_OF_ASC_NODE":201.2158,"ARG_OF_PERICENTER":77.4533,"MEAN_ANOMALY":282.8172,"EPHEMERIS_TYPE":0,"CLASSIFICATION_TYPE":"U","NORAD_CAT_ID":45794,"ELEMENT_SET_NO":999,"REV_AT_EPOCH":31856,"BSTAR":0.00039258132,"MEAN_MOTION_DOT":0.00011544,"MEAN_MOTION_DDOT":0},{"OBJECT_NAME":"STARLINK-35883","OBJECT_ID":"2025-283Q","EPOCH":"2026-03-09T06:53:22.921440","MEAN_MOTION":15.3018996,"ECCENTRICITY":0.00011582,"INCLINATION":53.1613,"RA_OF_ASC_NODE":25.954,"ARG_OF_PERICENTER":92.5073,"MEAN_ANOMALY":267.606,"EPHEMERIS_TYPE":0,"CLASSIFICATION_TYPE":"U","NORAD_CAT_ID":66892,"ELEMENT_SET_NO":999,"REV_AT_EPOCH":1578,"BSTAR":0.0014095104,"MEAN_MOTION_DOT":0.00041607,"MEAN_MOTION_DDOT":0}]
